<?xml version="1.0" encoding="UTF-8"?>
<TrainingCenterDatabase xsi:schemaLocation="http://www.garmin.com/xmlschemas/TrainingCenterDatabase/v2 http://www.garmin.com/xmlschemas/TrainingCenterDatabasev2.xsd"
  xmlns:ns5="http://www.garmin.com/xmlschemas/ActivityGoals/v1"
  xmlns:ns3="http://www.garmin.com/xmlschemas/ActivityExtension/v2"
  xmlns:ns2="http://www.garmin.com/xmlschemas/UserProfile/v2"
  xmlns="http://www.garmin.com/xmlschemas/TrainingCenterDatabase/v2"
  xmlns:xsi="http://www.w3.org/2001/XMLSchema-instance">
  <Activities>
    <Activity Sport="Biking">
      <Id>2026-08-18T06:30:00.000Z</Id>
      <Lap StartTime="2026-08-18T06:30:00.000Z">
        <TotalTimeSeconds>600.0</TotalTimeSeconds>
        <DistanceMeters>2666.6</DistanceMeters>
        <Calories>92</Calories>
        <Intensity>Active</Intensity>
        <TriggerMethod>Manual</TriggerMethod>
        <Track>
          <Trackpoint>
            <Time>2026-08-18T06:30:00.000Z</Time>
            <Position><LatitudeDegrees>30.2741500</LatitudeDegrees><LongitudeDegrees>120.1551000</LongitudeDegrees></Position>
            <AltitudeMeters>8.0</AltitudeMeters>
            <DistanceMeters>0.0</DistanceMeters>
            <HeartRateBpm><Value>96</Value></HeartRateBpm>
            <Cadence>82</Cadence>
            <Extensions><ns3:TPX><ns3:Speed>3.1</ns3:Speed></ns3:TPX></Extensions>
          </Trackpoint>
          <Trackpoint>
            <Time>2026-08-18T06:31:00.000Z</Time>
            <Position><LatitudeDegrees>30.2750000</LatitudeDegrees><LongitudeDegrees>120.1570000</LongitudeDegrees></Position>
            <AltitudeMeters>9.0</AltitudeMeters>
            <DistanceMeters>222.2</DistanceMeters>
            <HeartRateBpm><Value>110</Value></HeartRateBpm>
            <Cadence>84</Cadence>
            <Extensions><ns3:TPX><ns3:Speed>3.6</ns3:Speed></ns3:TPX></Extensions>
          </Trackpoint>
          <Trackpoint>
            <Time>2026-08-18T06:32:00.000Z</Time>
            <Position><LatitudeDegrees>30.2762000</LatitudeDegrees><LongitudeDegrees>120.1590000</LongitudeDegrees></Position>
            <AltitudeMeters>10.0</AltitudeMeters>
            <DistanceMeters>444.4</DistanceMeters>
            <HeartRateBpm><Value>118</Value></HeartRateBpm>
            <Cadence>86</Cadence>
            <Extensions><ns3:TPX><ns3:Speed>4.1</ns3:Speed></ns3:TPX></Extensions>
          </Trackpoint>
          <Trackpoint>
            <Time>2026-08-18T06:33:00.000Z</Time>
            <Position><LatitudeDegrees>30.2770000</LatitudeDegrees><LongitudeDegrees>120.1610000</LongitudeDegrees></Position>
            <AltitudeMeters>12.0</AltitudeMeters>
            <DistanceMeters>666.6</DistanceMeters>
            <HeartRateBpm><Value>124</Value></HeartRateBpm>
            <Cadence>87</Cadence>
            <Extensions><ns3:TPX><ns3:Speed>4.4</ns3:Speed></ns3:TPX></Extensions>
          </Trackpoint>
          <Trackpoint>
            <Time>2026-08-18T06:34:00.000Z</Time>
            <Position><LatitudeDegrees>30.2780000</LatitudeDegrees><LongitudeDegrees>120.1630000</LongitudeDegrees></Position>
            <AltitudeMeters>13.0</AltitudeMeters>
            <DistanceMeters>888.8</DistanceMeters>
            <HeartRateBpm><Value>127</Value></HeartRateBpm>
            <Cadence>88</Cadence>
            <Extensions><ns3:TPX><ns3:Speed>4.7</ns3:Speed></ns3:TPX></Extensions>
          </Trackpoint>
          <Trackpoint>
            <Time>2026-08-18T06:35:00.000Z</Time>
            <Position><LatitudeDegrees>30.2791000</LatitudeDegrees><LongitudeDegrees>120.1650000</LongitudeDegrees></Position>
            <AltitudeMeters>14.0</AltitudeMeters>
            <DistanceMeters>1111.0</DistanceMeters>
            <HeartRateBpm><Value>130</Value></HeartRateBpm>
            <Cadence>89</Cadence>
            <Extensions><ns3:TPX><ns3:Speed>5.0</ns3:Speed></ns3:TPX></Extensions>
          </Trackpoint>
          <Trackpoint>
            <Time>2026-08-18T06:36:00.000Z</Time>
            <Position><LatitudeDegrees>30.2800000</LatitudeDegrees><LongitudeDegrees>120.1670000</LongitudeDegrees></Position>
            <AltitudeMeters>15.0</AltitudeMeters>
            <DistanceMeters>1333.2</DistanceMeters>
            <HeartRateBpm><Value>132</Value></HeartRateBpm>
            <Cadence>90</Cadence>
            <Extensions><ns3:TPX><ns3:Speed>5.3</ns3:Speed></ns3:TPX></Extensions>
          </Trackpoint>
          <Trackpoint>
            <Time>2026-08-18T06:37:00.000Z</Time>
            <Position><LatitudeDegrees>30.2810000</LatitudeDegrees><LongitudeDegrees>120.1690000</LongitudeDegrees></Position>
            <AltitudeMeters>15.0</AltitudeMeters>
            <DistanceMeters>1555.4</DistanceMeters>
            <HeartRateBpm><Value>133</Value></HeartRateBpm>
            <Cadence>90</Cadence>
            <Extensions><ns3:TPX><ns3:Speed>5.6</ns3:Speed></ns3:TPX></Extensions>
          </Trackpoint>
          <Trackpoint>
            <Time>2026-08-18T06:38:00.000Z</Time>
            <Position><LatitudeDegrees>30.2818000</LatitudeDegrees><LongitudeDegrees>120.1710000</LongitudeDegrees></Position>
            <AltitudeMeters>14.0</AltitudeMeters>
            <DistanceMeters>1777.6</DistanceMeters>
            <HeartRateBpm><Value>131</Value></HeartRateBpm>
            <Cadence>89</Cadence>
            <Extensions><ns3:TPX><ns3:Speed>5.8</ns3:Speed></ns3:TPX></Extensions>
          </Trackpoint>
          <Trackpoint>
            <Time>2026-08-18T06:39:00.000Z</Time>
            <Position><LatitudeDegrees>30.2825000</LatitudeDegrees><LongitudeDegrees>120.1730000</LongitudeDegrees></Position>
            <AltitudeMeters>13.0</AltitudeMeters>
            <DistanceMeters>1999.8</DistanceMeters>
            <HeartRateBpm><Value>130</Value></HeartRateBpm>
            <Cadence>88</Cadence>
            <Extensions><ns3:TPX><ns3:Speed>5.9</ns3:Speed></ns3:TPX></Extensions>
          </Trackpoint>
          <Trackpoint>
            <Time>2026-08-18T06:40:00.000Z</Time>
            <Position><LatitudeDegrees>30.2830000</LatitudeDegrees><LongitudeDegrees>120.1750000</LongitudeDegrees></Position>
            <AltitudeMeters>12.0</AltitudeMeters>
            <DistanceMeters>2222.0</DistanceMeters>
            <HeartRateBpm><Value>128</Value></HeartRateBpm>
            <Cadence>87</Cadence>
            <Extensions><ns3:TPX><ns3:Speed>6.0</ns3:Speed></ns3:TPX></Extensions>
          </Trackpoint>
          <Trackpoint>
            <Time>2026-08-18T06:40:00.000Z</Time>
            <Position><LatitudeDegrees>30.2840000</LatitudeDegrees><LongitudeDegrees>120.1760000</LongitudeDegrees></Position>
            <AltitudeMeters>12.0</AltitudeMeters>
            <DistanceMeters>2444.2</DistanceMeters>
            <HeartRateBpm><Value>126</Value></HeartRateBpm>
            <Cadence>86</Cadence>
            <Extensions><ns3:TPX><ns3:Speed>5.8</ns3:Speed></ns3:TPX></Extensions>
          </Trackpoint>
          <Trackpoint>
            <Time>2026-08-18T06:41:00.000Z</Time>
            <Position><LatitudeDegrees>30.2848000</LatitudeDegrees><LongitudeDegrees>120.1780000</LongitudeDegrees></Position>
            <AltitudeMeters>13.0</AltitudeMeters>
            <DistanceMeters>2666.4</DistanceMeters>
            <HeartRateBpm><Value>124</Value></HeartRateBpm>
            <Cadence>85</Cadence>
            <Extensions><ns3:TPX><ns3:Speed>5.5</ns3:Speed></ns3:TPX></Extensions>
          </Trackpoint>
        </Track>
      </Lap>
    </Activity>
  </Activities>
</TrainingCenterDatabase>
